ID,Street,City,State,Zip,Country
1,6723 A Rd.,New Haven,QC,A1A 1A1,CAN
2,7845 Vivamus Avenue,Hillsboro,QC,X0A 0H0,CAN
3,"831-5067 PellentesqueSt.",Biloxi,QC,A1A 1A2,CAN
4,2645 Enim. Rd.,Reno,QC,X0A 0H1,CAN
5,Ap #486-3704 Aliquam Av.,Saint Louis,QC,A1A 1A3,CAN
6,523-4995 Aliquam St.,Clarksville,QC,X0A 0H2,CAN
7,Ap #854-2320 Enim. Street,Rockville,QC,A1A 1A4,CAN
8,"P.O. Box 3328936 LobortisRd.",Montgomery,QC,X0A 0H3,CAN
9,"Ap #483-1722 EstRoad",Springfield,ON,H0H 0H0,CAN
10,"P.O. Box 6558185 Egestas Street",Stamford,ON,A1A 1A4,CAN
11,8025 Nec Rd.,Akron,ON,A1A 1A4,CAN
12,811-3306 Lorem Ave,Juneau,ON,A1A 1A4,CAN
13,"P.O. Box 1527851 Cursus Rd.",Bowling Green,ON,H0H 0H0,CAN
14,"P.O. Box 1336906 Malesuada Road",Kansas City,ON,V0E 1M0,CAN
15,"P.O. Box 5927431 Justo Road",Tulsa,ON,V0E 1M1,CAN
16,1127 Dis Street,Henderson,ON,V0E 1M2,CAN
17,1041 Risus. Road,Jackson,ON,V0E 1M3,CAN
18,Ap #228-8080 Integer St.,Georgia,ON,V0E 1M4,CAN
19,Ap #781-7797 Metus St.,Aurora,ON,V0E 1M5,CAN
20,"P.O. Box 1238906 Nunc Av.",Pittsburgh,PA,18087,USA
21,4956 Eu St.,Columbia,MO,12836,USA
22,9467 Consequat St.,Henderson,NV,28245,USA
23,2136 Nunc Ave,Butte,MT,38850,USA
24,"P.O. Box 9061644 Dignissim Rd.",Honolulu,HI,20093,USA
25,"9639 OrnareAvenue",Joliet,IL,19741,USA
26,Ap #235-7015 Morbi Road,Vancouver,WA,90477,USA
27,2361 Pharetra Ave,Overland Park,KS,28558,USA
28,1918 Aliquet Av.,Louisville,KY,50088,USA
29,"P.O. Box 6805938 Sed Rd.",Grand Island,NE,71332,USA
30,"P.O. Box 6362176 Diam Avenue",Virginia Beach,VA,21259,USA
31,"P.O. Box 2599417 ElementumAvenue",Sioux City,IA,82805,USA
32,"P.O. Box 6793279 Egestas St.",Phoenix,AZ,85762,USA
33,4799 Egestas St.,Duluth,MN,57459,USA
34,"P.O. Box 5401191 Rutrum Av.",Worcester,MA,10811,USA
35,"476-1611 VestibulumAv.",Huntsville,AL,36695,USA
36,1234 Massa Rd.,Harrisburg,PA,59044,USA
37,523 Mi. St.,Henderson,NV,65450,USA
38,3691 Metus Avenue,Topeka,KS,48912,USA
39,Ap #480-4229 Nonummy Ave,Seattle,WA,55785,USA
40,"P.O. Box 4959982 Diam. St.",Lexington,KY,72794,USA
41,353-4910 Nulla Road,Norman,OK,94456,USA
42,"P.O. Box 3425729 Accumsan St.",Colorado Springs,CO,43870,USA
43,5478 Nulla St.,Honolulu,HI,74427,USA
44,"P.O. Box 7395947 Volutpat. Av.",Boston,MA,93519,USA
45,"207-964 VitaeRd.",Saint Louis,MO,41782,USA
46,Ap #527-2626 Cras Ave,Lawton,OK,39216,USA
47,"Ap #378-9431 VulputateStreet",Huntsville,AL,36314,USA
48,170-5541 Ac St.,Lansing,MI,91601,USA
49,"5481 AuctorRd.",San Francisco,CA,93532,USA
50,"P.O. Box 2494721 Tellus Avenue",South Bend,IN,78999,USA
51,"P.O. Box 3964969 Fermentum St.",Warren,MI,16468,USA
52,640-9185 Vestibulum Road,Chattanooga,TN,98490,USA
53,2556 Aliquet Rd.,Racine,WI,69040,USA
54,158-2906 Nisi Rd.,Missoula,MT,28252,USA
55,461-7299 Eu St.,Southaven,MS,25228,USA
56,"P.O. Box 7434861 Euismod St.",Covington,KY,73415,USA
57,436-5208 Varius Street,Chesapeake,VA,36071,USA
58,Ap #857-9655 Semper Avenue,Louisville,KY,98595,USA
59,828-1359 A Avenue,Toledo,OH,33795,USA
60,620 Tellus St.,Spokane,WA,27903,USA
61,9634 Libero Av.,Columbia,MD,21524,USA
62,Ap #950-3629 Venenatis Ave,Wichita,KS,53384,USA
63,"P.O. Box 7837224 Hendrerit St.",Norman,OK,32927,USA
64,911-7249 Aliquet Av.,Seattle,WA,68137,USA
65,723-8599 In Street,St. Petersburg,FL,81685,USA
66,790-6942 Curabitur Avenue,Mesa,AZ,85145,USA
67,Ap #506-2247 Elit St.,Joliet,IL,55857,USA
68,Ap #897-8009 Risus Ave,Sterling Heights,MI,89309,USA
69,629-6011 Mus. Road,Olathe,KS,12452,USA
70,"P.O. Box 350248 Ultricies Avenue",Springfield,MO,93005,USA
71,605-5381 A Street,Mobile,AL,36624,USA
72,920-7150 Ac St.,Gaithersburg,MD,59529,USA
73,711-535 Ipsum. Rd.,Paradise,NV,97548,USA
74,"P.O. Box 2902279 Rutrum Road",Allentown,PA,42592,USA
75,Ap #301-2926 Quam. St.,Rochester,MN,92628,USA
76,210-4415 Nulla Road,Grand Rapids,MI,23350,USA
77,"P.O. Box 8139213 Feugiat St.",Georgia,GA,48584,USA
78,Ap #710-8651 Libero Road,Aurora,IL,57647,USA
79,878-7607 Malesuada Av.,Auburn,ME,32049,USA
80,3932 In Av.,Kansas City,KS,12188,USA
81,6310 Cras Avenue,Meridian,ID,95306,USA
82,3363 Mi Rd.,Gulfport,MS,34967,USA
83,Ap #263-4467 Phasellus St.,Frederick,MD,34293,USA
84,"P.O. Box 1381238 Etiam Av.",Gresham,OR,65826,USA
85,"P.O. Box 1734686 Dictum Ave",Gulfport,MS,48471,USA
86,Ap #287-1535 Varius Ave,Knoxville,TN,21312,USA
87,629-9880 Tellus. Av.,Saint Louis,MO,45633,USA
88,Ap #257-1295 Imperdiet Rd.,Rockford,IL,57789,USA
89,670-9492 Lorem. Rd.,Vancouver,WA,48442,USA
90,"P.O. Box 840750 Consectetuer Avenue",Clarksville,TN,90408,USA
91,"P.O. Box 5503835 Sed St.",Tulsa,OK,97723,USA
92,100 Aliquet. Street,Sterling Heights,MI,30435,USA
93,"384-5642 TortorAve",Paradise,NV,47273,USA
94,8810 Accumsan St.,Cleveland,OH,60350,USA
95,"746-1402 OdioAve",Anchorage,AK,99560,USA
96,Ap #785-5022 Arcu Av.,Milwaukee,WI,13581,USA
97,"P.O. Box 8434080 Ligula. St.",Mobile,AL,35407,USA
98,Ap #356-4664 Enim. Street,Kaneohe,HI,88724,USA
99,793-4982 Mus. Rd.,Olympia,WA,57546,USA
100,Ap #673-6503 Curabitur Av.,Houston,TX,75064,USA
101,"P.O. Box 2595319 Aenean Ave",Independence,MO,47988,USA
102,754-6226 Curabitur Av.,Richmond,VA,36888,USA
103,Ap #287-3714 Vitae Street,Akron,OH,74993,USA
104,Ap #544-5732 Euismod Street,Georgia,GA,76761,USA
105,4098 Suspendisse St.,Cleveland,OH,97635,USA
106,Ap #667-8398 Nullam Avenue,Hattiesburg,MS,96013,USA
107,4411 Natoque Road,Bowling Green,KY,48691,USA
108,Ap #281-7300 Sit Street,Tucson,AZ,85086,USA
109,Ap #942-5068 Aliquam Avenue,Pittsburgh,PA,80839,USA
110,8671 Sollicitudin Road,Aurora,CO,25642,USA
111,3725 Sed St.,Wilmington,DE,59871,USA
112,"P.O. Box 1064152 Ligula Avenue",Detroit,MI,85919,USA
113,"P.O. Box 6293648 Turpis St.",South Portland,ME,25004,USA
114,329-8194 Vulputate Rd.,San Jose,CA,93061,USA
115,462-2025 Lacus. Avenue,Oklahoma City,OK,15745,USA
116,259-8915 Nulla. St.,Grand Rapids,MI,45494,USA
117,Ap #375-1601 Etiam Street,Little Rock,AR,71064,USA
118,102 Felis Avenue,Georgia,GA,80297,USA
119,679-9037 Nisi Street,Augusta,ME,87959,USA
120,175-5275 Mus. Road,Bozeman,MT,97500,USA
121,9333 Tempus St.,Gresham,OR,12571,USA
122,141-6020 Ligula. Rd.,West Jordan,UT,75375,USA
123,2403 Duis Road,Baton Rouge,LA,16654,USA
124,Ap #425-1299 Ut Road,Warren,MI,52885,USA
125,"P.O. Box 555518 Eu St.",Kansas City,MO,29721,USA
126,"P.O. Box 9463946 LuctusRoad",Owensboro,KY,44649,USA
127,9514 Augue St.,Gulfport,MS,96254,USA
128,Ap #140-6262 Ut Road,Cleveland,OH,53770,USA
129,511-7147 Etiam Rd.,Nashville,TN,20011,USA
130,"P.O. Box 1162042 Arcu. Rd.",Lawton,OK,17148,USA
131,"522-5236 InRd.",Milwaukee,WI,96696,USA
132,295-2834 Nisl. Avenue,Southaven,MS,40035,USA
133,3449 Erat. Road,Boston,MA,77552,USA
134,361-7105 Porta St.,College,AK,99826,USA
135,"446-284 ARd.",Phoenix,AZ,86765,USA
136,Ap #617-7927 Dolor Street,Cincinnati,OH,26283,USA
137,5952 Adipiscing St.,Norman,OK,89476,USA
138,Ap #777-8227 Dictum St.,Athens,GA,41754,USA
139,Ap #369-9455 Per Street,Montgomery,AL,35569,USA
140,909-3973 Sagittis. Road,Waterbury,CT,46664,USA
141,4141 Magnis Rd.,Idaho Falls,ID,26362,USA
142,"P.O. Box 8744007 Dui. Avenue",Duluth,MN,39733,USA
143,352-4026 Neque. Rd.,Cedar Rapids,IA,34160,USA
144,3566 Accumsan Rd.,San Jose,CA,94350,USA
145,Ap #361-9285 Augue Rd.,Portland,ME,28529,USA
146,"P.O. Box 5731284 Orci Rd.",Colorado Springs,CO,53443,USA
147,"P.O. Box 4336688 Pellentesque Rd.",Wyoming,WY,95536,USA
148,Ap #575-5576 Egestas St.,Bear,DE,90282,USA
149,"5773 SapienAvenue",Broken Arrow,OK,50722,USA
150,"522-9485 VelAvenue",Hilo,HI,37498,USA
151,"P.O. Box 4322433 Sed Rd.",Topeka,KS,29065,USA
152,Ap #480-646 Aliquet Street,Minneapolis,MN,39163,USA
153,Ap #966-6755 Velit. Road,Bridgeport,CT,84939,USA
154,918-3124 Parturient St.,Nashville,TN,27668,USA
155,"P.O. Box 4443514 Varius. Ave",Wilmington,DE,37027,USA
156,Ap #546-6315 Egestas. Rd.,Davenport,IA,35191,USA
157,307-2884 Est. Rd.,Reading,PA,38644,USA
158,3829 Vulputate Road,Spokane,WA,52845,USA
159,1454 Proin Rd.,South Bend,IN,10550,USA
160,Ap #287-2521 Duis Ave,Seattle,WA,34617,USA
161,537-466 Sem. Av.,Rochester,MN,91794,USA
162,"P.O. Box 6514839 Ut Road",Bloomington,MN,84104,USA
163,"P.O. Box 7111417 In Rd.",Essex,VT,36891,USA
164,Ap #939-8706 A Street,Norfolk,VA,15898,USA
165,Ap #904-3790 A Ave,West Valley City,UT,27710,USA
166,Ap #121-7665 Pretium Av.,San Francisco,CA,95768,USA
167,7916 Tellus. Avenue,Wichita,KS,16599,USA
168,"P.O. Box 9833708 Pede Avenue",Des Moines,IA,83862,USA
169,671-8841 At Road,Saint Paul,MN,45474,USA
170,"488-9265 AliquamAvenue",Gulfport,MS,93439,USA
171,"P.O. Box 8546522 Nunc Av.",Los Angeles,CA,91229,USA
172,Ap #279-3619 Vestibulum Av.,Idaho Falls,ID,85226,USA
173,829-1923 Enim Av.,Jacksonville,FL,17845,USA
174,983-8513 Massa. Av.,Henderson,NV,79595,USA
175,922-5315 Luctus Street,Salem,OR,64946,USA
176,"P.O. Box 3013045 Cum Rd.",New Orleans,LA,38401,USA
177,"P.O. Box 8602065 Quisque Av.",Tacoma,WA,90436,USA
178,"P.O. Box 4041594 VelSt.",Juneau,AK,99968,USA
179,704-9898 Tempus Rd.,Portland,OR,98408,USA
180,Ap #135-974 Fringilla. Ave,Bear,DE,41008,USA
181,216-9957 Vel Rd.,Tuscaloosa,AL,35790,USA
182,"P.O. Box 9451537 Auctor St.",Davenport,IA,43891,USA
183,"P.O. Box 7989836 Ipsum. Street",Springfield,MA,65019,USA
184,Ap #151-3406 Pede. Av.,Honolulu,HI,82285,USA
185,Ap #222-6291 Ultrices Avenue,Idaho Falls,ID,89215,USA
186,"P.O. Box 9507633 Orci. Street",North Las Vegas,NV,83973,USA
187,269-7034 Ut Ave,Huntsville,AL,35081,USA
188,Ap #657-4742 Auctor St.,Columbia,MO,87508,USA
189,Ap #271-1870 Egestas Street,Ketchikan,AK,99939,USA
190,989-2626 Erat St.,College,AK,99609,USA
191,"P.O. Box 5393208 Fringilla St.",Hillsboro,OR,73604,USA
192,6173 Donec Road,Tulsa,OK,93409,USA
193,5748 Erat Av.,Fayetteville,AR,71814,USA
194,971-6676 Nullam Rd.,Hillsboro,OR,67056,USA
195,"P.O. Box 3384504 Dapibus Av.",Norfolk,VA,28990,USA
196,250-621 Elit Rd.,Helena,MT,12160,USA
197,5110 Libero. Rd.,Chicago,IL,10449,USA
198,479-6934 Aliquam Ave,Columbus,OH,78409,USA
199,"P.O. Box 2979868 Euismod Avenue",Chicago,IL,59282,USA
200,"840-8941 ElitRd.",Cleveland,OH,26235,USA
201,196-2175 Ultricies Rd.,Fresno,CA,93109,USA
202,590-542 Malesuada Rd.,Flint,MI,33201,USA
203,7244 Parturient Rd.,Auburn,ME,82374,USA
204,"4809 LoremSt.",Louisville,KY,32336,USA
205,"P.O. Box 788734 Eleifend Rd.",Reno,NV,67610,USA
206,Ap #762-6756 Velit. Rd.,Springfield,MA,68949,USA
207,8606 Sed Street,Pike Creek,DE,59672,USA
208,Ap #404-7304 Ut Road,Springdale,AR,72683,USA
209,865-6229 Luctus Rd.,Sioux City,IA,30802,USA
210,3497 Aliquam Ave,Tallahassee,FL,64904,USA
211,584-8732 Sem Av.,Oklahoma City,OK,81103,USA
212,"P.O. Box 2022853 Augue Rd.",Columbus,GA,86101,USA
213,7772 A Road,Bear,DE,83314,USA
214,"P.O. Box 6521096 Ut St.",Bridgeport,CT,25237,USA
215,Ap #338-3028 Iaculis Ave,Tallahassee,FL,35395,USA
216,2721 Taciti Av.,Bridgeport,CT,35843,USA
217,"P.O. Box 4352863 Euismod St.",Essex,VT,34090,USA
218,Ap #825-2052 Interdum Rd.,Missoula,MT,14554,USA
219,740-5682 Nunc St.,Phoenix,AZ,85355,USA
220,"P.O. Box 5804983 Eu Avenue",Portland,ME,42165,USA
221,4194 Sit Street,Casper,WY,99674,USA
222,"P.O. Box 365338 Libero Street",Georgia,GA,36567,USA
223,2458 Iaculis Street,Honolulu,HI,60789,USA
224,"P.O. Box 6306850 Vel St.",Cambridge,MA,80257,USA
225,Ap #900-9912 Dictum Ave,Richmond,VA,66298,USA
226,"P.O. Box 3342132 PlaceratAve",Virginia Beach,VA,73309,USA
227,"P.O. Box 7368391 Nisi. Road",Hilo,HI,30540,USA
228,Ap #614-3662 Dolor Ave,Montgomery,AL,35143,USA
229,6585 Ultrices Rd.,Columbus,OH,56721,USA
230,"P.O. Box 8497249 Nunc St.",Worcester,MA,23253,USA
231,Ap #516-8050 Vestibulum Rd.,Honolulu,HI,33816,USA
232,"P.O. Box 8028987 Lectus Avenue",Savannah,GA,74932,USA
233,Ap #288-5049 Sed Avenue,Cincinnati,OH,42017,USA
234,Ap #874-6047 Ligula. St.,Eugene,OR,71205,USA
235,1371 Ridiculus St.,Laramie,WY,65534,USA
236,Ap #770-7454 Ac St.,North Las Vegas,NV,87221,USA
237,9861 Suspendisse Rd.,Shreveport,LA,78003,USA
238,450-5978 Convallis Road,Juneau,AK,99954,USA
239,"Ap #651-1350 EuAvenue",Clarksville,TN,71981,USA
240,Ap #129-7504 Duis Ave,Juneau,AK,99860,USA
241,"P.O. Box 9795052 Mauris St.",Sioux City,IA,88156,USA
242,"342-2552 LectusAve",Akron,OH,12330,USA
243,"Ap #291-2761 AAv.",Fort Worth,TX,67097,USA
244,2477 Rutrum St.,Gillette,WY,65368,USA
245,"P.O. Box 7793745 Feugiat Road",Milwaukee,WI,82392,USA
246,322-3099 Sed Rd.,Georgia,GA,85862,USA
247,411-6125 Sed Av.,San Francisco,CA,95172,USA
248,9499 Tempus Street,Rockville,MD,14185,USA
249,8633 Amet Ave,Waterbury,CT,87458,USA
250,"4611 PharetraRd.",Vancouver,WA,60468,USA
251,3966 Auctor Rd.,Jackson,MS,19071,USA
252,Ap #617-7527 Justo Rd.,Mesa,AZ,85617,USA
253,Ap #401-1668 Ipsum Rd.,Wyoming,WY,49116,USA
254,"P.O. Box 6064506 Aliquam Rd.",Bridgeport,CT,83026,USA
255,6578 Sit St.,Tacoma,WA,53525,USA
256,"P.O. Box 758325 UtRd.",Saint Louis,MO,31559,USA
257,595-3684 Tincidunt Road,Auburn,ME,32664,USA
258,Ap #953-275 Arcu. Street,San Francisco,CA,90399,USA
259,164-4923 Eu Street,Aurora,IL,39674,USA
260,Ap #847-3281 Quam Rd.,Olathe,KS,78086,USA
261,Ap #683-3041 Eget St.,Tulsa,OK,86424,USA
262,Ap #107-7045 Nunc St.,Fort Collins,CO,84456,USA
263,848-5774 Morbi Street,Columbia,MD,94164,USA
264,303-9253 Malesuada Ave,Rutland,VT,63659,USA
265,274 Morbi Avenue,Columbus,OH,58073,USA
266,238-4705 Blandit St.,Memphis,TN,71993,USA
267,"P.O. Box 4743369 Aliquam Ave",Metairie,LA,75021,USA
268,3051 Ridiculus Rd.,Fort Worth,TX,98957,USA
269,5732 Ac Avenue,Fairbanks,AK,99617,USA
270,Ap #806-1079 Vel St.,Auburn,ME,82053,USA
271,2396 Vivamus Rd.,Allentown,PA,17977,USA
272,5090 Leo. Street,Tulsa,OK,18306,USA
273,2353 Eros Av.,Orlando,FL,36425,USA
274,"P.O. Box 636138 Orci Street",Olathe,KS,66269,USA
275,972-1114 Arcu. Av.,Saint Louis,MO,73764,USA
276,"P.O. Box 5265307 Aliquet Road",Vancouver,WA,14910,USA
277,Ap #538-3728 Pede Rd.,West Jordan,UT,46814,USA
278,"P.O. Box 5088206 Sollicitudin Ave",Phoenix,AZ,85865,USA
279,Ap #424-4507 Dictum Av.,Lewiston,ME,16217,USA
280,522-2404 Elementum St.,Chandler,AZ,85772,USA
281,Ap #223-8926 Ut Ave,Chandler,AZ,86413,USA
282,Ap #160-1601 Nibh Road,Pike Creek,DE,31325,USA
283,"P.O. Box 9975275 Sociosqu St.",Kenosha,WI,77540,USA
284,2614 Dictum Av.,Kenosha,WI,51854,USA
285,"P.O. Box 4462186 Augue Av.",Topeka,KS,98002,USA
286,Ap #745-3279 Dictum. Av.,Salem,OR,73790,USA
287,234-281 Fusce Ave,Reading,PA,59845,USA
288,4403 Interdum St.,Saint Paul,MN,37554,USA
289,265-3612 Urna. Av.,Juneau,AK,99650,USA
290,"P.O. Box 3343550 AtRd.",Hartford,CT,82666,USA
291,2507 Felis Rd.,Frankfort,KY,66326,USA
292,Ap #669-9416 Sollicitudin Rd.,Tucson,AZ,86719,USA
293,"P.O. Box 3663784 Sit St.",Kailua,HI,98503,USA
294,"P.O. Box 5177678 Curabitur Road",Cedar Rapids,IA,54628,USA
295,Ap #317-7264 Diam Avenue,Fort Collins,CO,72486,USA
296,Ap #504-2011 Mi St.,Great Falls,MT,35616,USA
297,7101 Vivamus Rd.,Akron,OH,85190,USA
298,"P.O. Box 7542724 Ornare. Av.",Gaithersburg,MD,26615,USA
299,837-2118 Integer Ave,Nampa,ID,85164,USA
300,2136 Sed St.,Tallahassee,FL,21382,USA
301,1243 Sociis Rd.,Laramie,WY,27849,USA
302,443-1855 Erat. Av.,Portland,OR,22872,USA
303,4468 Ut Avenue,Tulsa,OK,19205,USA
304,Ap #831-6306 Pellentesque. St.,Huntsville,AL,35420,USA
305,Ap #981-3202 Amet Rd.,Newport News,VA,66166,USA
306,"P.O. Box 1193447 Auctor. Rd.",Rockford,IL,41851,USA
307,Ap #203-335 Mus. St.,Nampa,ID,54456,USA
308,410-8334 Neque. Road,Bridgeport,CT,79408,USA
309,"P.O. Box 5733114 Ipsum. Avenue",Augusta,GA,45385,USA
310,Ap #274-1345 Primis Road,Milwaukee,WI,69906,USA
311,"Ap #890-3180 ElitStreet",South Portland,ME,53406,USA
312,832-2602 Quis St.,Frederick,MD,68547,USA
313,"562-4228 SuscipitAvenue",Frankfort,KY,73594,USA
314,"P.O. Box 9459635 Lorem Ave",Southaven,MS,80582,USA
315,Ap #597-4413 Sed Road,Virginia Beach,VA,20006,USA
316,4952 Donec Street,Gillette,WY,62162,USA
317,"Ap #508-6925 PharetraRoad",Jefferson City,MO,86050,USA
318,6141 Dolor Rd.,Huntsville,AL,35120,USA
319,"P.O. Box 9173422 Nisi. Street",Little Rock,AR,71053,USA
320,"P.O. Box 5703475 Facilisi. Ave",San Antonio,TX,52679,USA
321,162-9495 Dictum Street,Fort Wayne,IN,83727,USA
322,5092 Libero Avenue,Gulfport,MS,58212,USA
323,"P.O. Box 8023323 Velit Road",Glendale,AZ,86109,USA
324,Ap #992-8943 Ante. St.,Phoenix,AZ,85635,USA
325,396-2444 Magna St.,Evansville,IN,91303,USA
326,8474 Duis Road,Meridian,ID,39274,USA
327,966-9352 Donec St.,Portland,OR,10136,USA
328,Ap #876-8993 Sociis Ave,South Portland,ME,43556,USA
329,"Ap #902-8744 EratAve",Birmingham,AL,36553,USA
330,"388-5050 NonRoad",Hillsboro,OR,56377,USA
331,Ap #178-2438 A St.,Great Falls,MT,91021,USA
332,Ap #335-8110 Rutrum Road,Aurora,CO,73361,USA
333,9597 Vivamus St.,Springfield,MO,75089,USA
334,"P.O. Box 4564904 Feugiat St.",Lansing,MI,50174,USA
335,"538-5300 UltricesSt.",Mobile,AL,35593,USA
336,728-9834 Morbi St.,Paradise,NV,10761,USA
337,"447-8436 AcSt.",Norfolk,VA,79468,USA
338,"P.O. Box 6046989 Vitae Street",Boise,ID,42750,USA
339,"P.O. Box 5678586 Iaculis Street",Austin,TX,16478,USA
340,670-2972 Amet Av.,Fairbanks,AK,99797,USA
341,1973 Donec Ave,Boston,MA,77170,USA
342,"P.O. Box 3465981 Ipsum Av.",Oklahoma City,OK,11064,USA
343,3484 Neque. Av.,Salt Lake City,UT,77000,USA
344,"P.O. Box 6037822 Quisque Street",Little Rock,AR,72357,USA
345,"P.O. Box 6937649 Sed Rd.",Omaha,NE,40507,USA
346,"1124 AtStreet",Hilo,HI,63830,USA
347,"P.O. Box 2047549 Semper St.",Lexington,KY,48511,USA
348,"P.O. Box 2864180 Molestie Rd.",Honolulu,HI,69319,USA
349,Ap #172-1864 Mattis St.,Grand Island,NE,60056,USA
350,980-1448 Phasellus Ave,Madison,WI,34047,USA
351,5682 Ut Road,Joliet,IL,17096,USA
352,Ap #100-5756 Diam. Rd.,Essex,VT,23974,USA
353,6679 In Av.,Miami,FL,72889,USA
354,"Ap #164-9259 EuRoad",Laramie,WY,95527,USA
355,"476-7748 ASt.",Pocatello,ID,25919,USA
356,"Ap #505-1332 EstRd.",Lewiston,ME,24215,USA
357,"6901 VulputateStreet",Lansing,MI,93368,USA
358,711-9552 Phasellus Av.,Portland,OR,48895,USA
359,"P.O. Box 3639605 Sodales Street",Pittsburgh,PA,68706,USA
360,6963 Sit Av.,Jacksonville,FL,20008,USA
361,Ap #481-3789 Amet Rd.,Rock Springs,WY,70689,USA
362,Ap #410-8983 Dolor. St.,Des Moines,IA,85942,USA
363,495-5050 Sit Road,Sioux City,IA,84724,USA
364,"P.O. Box 863517 Vulputate Rd.",Rockford,IL,98732,USA
365,463-7184 Ante Rd.,Milwaukee,WI,84801,USA
366,Ap #958-7716 Egestas. Road,Gillette,WY,21825,USA
367,326-1196 Mus. Avenue,Cambridge,MA,54100,USA
368,Ap #125-7280 Dui. Street,Colorado Springs,CO,19838,USA
369,Ap #228-599 Vivamus Av.,Lincoln,NE,82691,USA
370,702-5042 Libero Rd.,San Jose,CA,94779,USA
371,"P.O. Box 3838624 Mollis St.",Springfield,IL,96809,USA
372,Ap #561-8131 Ac Rd.,Cleveland,OH,26893,USA
373,7414 Aliquet Av.,Philadelphia,PA,23536,USA
374,Ap #846-5151 Mauris Ave,Pocatello,ID,29994,USA
375,"P.O. Box 1812174 Vestibulum Street",Omaha,NE,88410,USA
376,"P.O. Box 6309641 Tellus. Rd.",Seattle,WA,35606,USA
377,"4477 AcRd.",Vancouver,WA,39027,USA
378,"P.O. Box 1382812 ConvallisSt.",Gaithersburg,MD,96987,USA
379,"P.O. Box 8608994 Gravida Avenue",Richmond,VA,58802,USA
380,"3419 TemporAv.",Lansing,MI,46115,USA
381,248-5148 Ultrices Ave,Colchester,VT,57031,USA
382,313-1257 Id Street,Lowell,MA,18952,USA
383,2867 Cum Road,Springdale,AR,71920,USA
384,120 Neque St.,Jefferson City,MO,20565,USA
385,"P.O. Box 8396806 Eleifend Street",Naperville,IL,40767,USA
386,634-7383 Eu Rd.,Springfield,IL,46399,USA
387,2079 Tincidunt Rd.,Anchorage,AK,99765,USA
388,Ap #189-9875 Pede St.,Mobile,AL,35830,USA
389,858-8354 Ante Av.,Provo,UT,51837,USA
390,"547-701 DuiStreet",Philadelphia,PA,97286,USA
391,5104 Sed Rd.,Southaven,MS,28257,USA
392,Ap #459-4585 Vitae St.,Montgomery,AL,35907,USA
393,9339 Lectus Avenue,Sioux City,IA,33379,USA
394,8899 Aenean Road,Overland Park,KS,66831,USA
395,"4343 PedeSt.",Nampa,ID,99999,USA
396,757-7064 Interdum Ave,Cedar Rapids,IA,94817,USA
397,314-9202 Vitae St.,Chattanooga,TN,69058,USA
398,"P.O. Box 6591753 Dictum Rd.",Bear,DE,67214,USA
399,4457 Magna St.,Waterbury,CT,69970,USA
400,"Ap #345-7022 UtRd.",Cedar Rapids,IA,99762,USA
401,"P.O. Box 6462737 AtSt.",Pocatello,ID,66218,USA
402,7867 Ligula. Rd.,Wilmington,DE,76203,USA
403,"P.O. Box 7866684 Lacinia. Ave",Sandy,UT,97005,USA
404,"Ap #972-7257 NostraAvenue",Helena,MT,74507,USA
405,917-2155 Urna. Ave,Gillette,WY,16101,USA
406,854-5496 Fusce Rd.,Auburn,ME,10829,USA
407,"P.O. Box 5742141 Sed St.",Portland,OR,77818,USA
408,9808 Tellus Rd.,Akron,OH,18536,USA
409,108-2267 Fusce Av.,Dallas,TX,14617,USA
410,"P.O. Box 3279571 Urna. Road",Wichita,KS,37282,USA
411,"P.O. Box 8949771 Donec Ave",Flint,MI,23499,USA
412,964-9512 Auctor Rd.,Memphis,TN,62366,USA
413,940-7807 Sociis Road,Cedar Rapids,IA,74544,USA
414,630-654 Consequat Road,Essex,VT,34520,USA
415,"2613 SapienAve",Harrisburg,PA,26245,USA
416,"798-7450 AcAve",Colorado Springs,CO,27993,USA
417,"2550 AAvenue",Henderson,NV,39175,USA
418,Ap #959-6949 Gravida. Ave,Biloxi,MS,22435,USA
419,Ap #648-1716 Arcu Rd.,Los Angeles,CA,92084,USA
420,4211 Massa. Rd.,Indianapolis,IN,73567,USA
421,598-8797 Fames Street,Knoxville,TN,61614,USA
422,"P.O. Box 7848944 Quis St.",Hilo,HI,12234,USA
423,705-8503 Magnis St.,Montpelier,VT,51773,USA
424,"251-4516 NonAvenue",Bowling Green,KY,74732,USA
425,408-8747 Vestibulum Ave,Sterling Heights,MI,43021,USA
426,1890 Quisque Ave,Salt Lake City,UT,40088,USA
427,6405 Libero St.,Henderson,NV,78888,USA
428,Ap #858-3101 Libero. St.,Gillette,WY,91416,USA
429,"P.O. Box 1097697 Orci. Avenue",Savannah,GA,92990,USA
430,Ap #885-7676 Morbi Road,Meridian,ID,34611,USA
431,"P.O. Box 6239299 Pharetra. St.",Savannah,GA,56747,USA
432,2574 Integer Road,Topeka,KS,19969,USA
433,3792 Mauris St.,Chattanooga,TN,93407,USA
434,442-6235 Duis Road,Las Vegas,NV,20721,USA
435,Ap #251-3810 Quisque Avenue,Billings,MT,36065,USA
436,"P.O. Box 8713624 Integer Rd.",Flint,MI,18111,USA
437,Ap #992-7532 Massa. St.,Kapolei,HI,65849,USA
438,335-7496 Est Rd.,Pocatello,ID,54937,USA
439,"P.O. Box 1193702 DolorSt.",Bowling Green,KY,22620,USA
440,801-5927 Luctus St.,Duluth,MN,71559,USA
441,"P.O. Box 1387740 Ridiculus Ave",Bridgeport,CT,45703,USA
442,181-6525 Et Av.,Pike Creek,DE,31858,USA
443,Ap #783-5991 Sed Rd.,Newark,DE,71380,USA
444,Ap #998-169 Arcu. Ave,Columbia,MD,59913,USA
445,4438 Est St.,Casper,WY,28910,USA
446,"P.O. Box 5603262 Cras Rd.",Carson City,NV,64301,USA
447,Ap #179-1373 Etiam Street,Billings,MT,30098,USA
448,783-2169 Sagittis. Road,Lewiston,ME,28692,USA
449,Ap #551-7849 Vitae Ave,Denver,CO,81919,USA
450,572-1695 Fringilla. St.,Huntsville,AL,36827,USA
451,698-9898 Netus Rd.,Hillsboro,OR,58125,USA
452,Ap #206-1602 Dapibus Road,Cleveland,OH,95071,USA
453,"P.O. Box 8033107 Orci Avenue",Stamford,CT,52955,USA
454,678-4360 Donec St.,Paradise,NV,68129,USA
455,894-664 Id Rd.,Worcester,MA,92003,USA
456,514-9392 Quam Avenue,Grand Rapids,MI,88040,USA
457,9419 Dolor. Road,Fort Smith,AR,72587,USA
458,Ap #589-4665 Senectus St.,Southaven,MS,31470,USA
459,596-7041 In St.,Springfield,MO,33131,USA
460,5632 Lorem Ave,Birmingham,AL,35267,USA
461,Ap #504-9880 Proin Rd.,Joliet,IL,85629,USA
462,335-133 Adipiscing Rd.,Montpelier,VT,92463,USA
463,"P.O. Box 7511527 Enim. Street",Kansas City,MO,25049,USA
464,Ap #686-1975 Neque Avenue,Nampa,ID,64323,USA
465,"P.O. Box 4058538 Et Ave",Casper,WY,89061,USA
466,3529 Cras Road,Minneapolis,MN,63765,USA
467,"P.O. Box 252445 Sit Avenue",Grand Island,NE,32493,USA
468,Ap #962-4019 Accumsan Rd.,Detroit,MI,11460,USA
469,Ap #267-1793 Primis Rd.,Rochester,MN,90638,USA
470,Ap #178-9725 Mauris. St.,Rutland,VT,44393,USA
471,"P.O. Box 180609 Sapien. Av.",Aurora,IL,44125,USA
472,"9983 EgetAv.",Bangor,ME,50626,USA
473,"3361 NostraRd.",Clarksville,TN,14721,USA
474,"P.O. Box 1099649 Non Rd.",Baton Rouge,LA,44777,USA
475,"P.O. Box 1696717 Eget Street",New Orleans,LA,96488,USA
476,"854-8462 NonSt.",Lafayette,LA,44793,USA
477,406-6861 Vulputate St.,Stamford,CT,30683,USA
478,"P.O. Box 8166198 Porttitor St.",New Orleans,LA,48529,USA
479,6908 Dapibus Rd.,Jackson,MS,85250,USA
480,"P.O. Box 3842486 Nonummy Street",Seattle,WA,28615,USA
481,9619 Nisi. Street,Tulsa,OK,56854,USA
482,8995 Morbi Road,Madison,WI,87268,USA
483,5238 Ipsum Rd.,Sacramento,CA,96076,USA
484,"P.O. Box 7886126 At Avenue",West Jordan,UT,55673,USA
485,2985 Pharetra. Ave,Worcester,MA,80181,USA
486,6185 Nec Ave,Boston,MA,81933,USA
487,"411-3424 AmetSt.",Springfield,IL,22041,USA
488,"P.O. Box 661712 Vitae Rd.",Hartford,CT,80445,USA
489,"P.O. Box 6823011 Tincidunt Avenue",Juneau,AK,99524,USA
490,"P.O. Box 3073816 Phasellus Road",Rockville,MD,80960,USA
491,"485-749 LectusRoad",Henderson,NV,48374,USA
492,616-2921 Eleifend Street,Portland,OR,30330,USA
493,2546 Metus. Rd.,Fayetteville,AR,71289,USA
494,Ap #195-6098 At Rd.,Huntsville,AL,35938,USA
495,1751 Mus. St.,Mobile,AL,35224,USA
496,"Ap #555-4236 FringillaStreet",Cincinnati,OH,42059,USA
497,990-7439 Duis St.,Missoula,MT,51911,USA
498,"Ap #919-1612 TortorRoad",Carson City,NV,64950,USA
499,9476 Egestas St.,Covington,KY,16995,USA
500,"P.O. Box 6926352 Facilisis Av.",Grand Rapids,MI,95949,USA